start=new Date('2021-09-04T00:00:00.000Z').valueOf();
sats=[{"TIME_SYSTEM":"UTC","SITE":"AFETR","RA_OF_ASC_NODE":"219.9335","SEMIMAJOR_AXIS":"6925.348","RCS_SIZE":"LARGE","INCLINATION":"53.0502","MEAN_MOTION":"15.06400146","MEAN_ELEMENT_THEORY":"SGP4","PERIAPSIS":"546.334","CENTER_NAME":"EARTH","MEAN_MOTION_DDOT":"0.0000000000000","TLE_LINE2":"2 47351  53.0502 219.9335 0001270  14.9794 345.1232 15.06400146 35200","FILE":"3108332","PERIOD":"95.592","EPHEMERIS_TYPE":"0","CLASSIFICATION_TYPE":"U","TLE_LINE1":"1 47351U 21005C   21246.65745263  .00000804  00000-0  72880-4 0  9992","ARG_OF_PERICENTER":"14.9794","OBJECT_NAME":"STARLINK-2017","BSTAR":"0.00007288000000","MEAN_ANOMALY":"345.1232","REF_FRAME":"TEME","NORAD_CAT_ID":"47351","ECCENTRICITY":"0.00012700","ELEMENT_SET_NO":"999","OBJECT_ID":"2021-005C","APOAPSIS":"548.093","DECAY_DATE":null,"GP_ID":"184050705","EPOCH":"2021-09-03T15:46:43.907232","MEAN_MOTION_DOT":"0.00000804","LAUNCH_DATE":"2021-01-20","REV_AT_EPOCH":"3520","COUNTRY_CODE":"US","OBJECT_TYPE":"PAYLOAD"},{"PERIOD":"95.592","CLASSIFICATION_TYPE":"U","EPHEMERIS_TYPE":"0","TLE_LINE2":"2 47352  53.0543 260.4295 0001094  57.1152 302.9942 15.06400502 34623","FILE":"3108332","TLE_LINE1":"1 47352U 21005D   21246.54317823  .00000644  00000-0  62110-4 0  9995","MEAN_ELEMENT_THEORY":"SGP4","PERIAPSIS":"546.454","CENTER_NAME":"EARTH","MEAN_MOTION_DDOT":"0.0000000000000","RCS_SIZE":"LARGE","MEAN_MOTION":"15.06400502","INCLINATION":"53.0543","SITE":"AFETR","TIME_SYSTEM":"UTC","RA_OF_ASC_NODE":"260.4295","SEMIMAJOR_AXIS":"6925.347","LAUNCH_DATE":"2021-01-20","REV_AT_EPOCH":"3462","EPOCH":"2021-09-03T13:02:10.599072","MEAN_MOTION_DOT":"0.00000644","COUNTRY_CODE":"US","OBJECT_TYPE":"PAYLOAD","APOAPSIS":"547.970","DECAY_DATE":null,"GP_ID":"184049455","REF_FRAME":"TEME","ECCENTRICITY":"0.00010940","NORAD_CAT_ID":"47352","MEAN_ANOMALY":"302.9942","ELEMENT_SET_NO":"999","OBJECT_ID":"2021-005D","ARG_OF_PERICENTER":"57.1152","BSTAR":"0.00006211000000","OBJECT_NAME":"STARLINK-2034"},{"BSTAR":"-0.00003443300000","OBJECT_NAME":"STARLINK-2045","ARG_OF_PERICENTER":"57.1696","ELEMENT_SET_NO":"999","OBJECT_ID":"2021-005E","MEAN_ANOMALY":"302.9459","REF_FRAME":"TEME","NORAD_CAT_ID":"47353","ECCENTRICITY":"0.00017260","DECAY_DATE":null,"GP_ID":"184021190","APOAPSIS":"548.428","COUNTRY_CODE":"US","OBJECT_TYPE":"PAYLOAD","EPOCH":"2021-09-03T08:46:44.873760","MEAN_MOTION_DOT":"-0.00000794","REV_AT_EPOCH":"3603","LAUNCH_DATE":"2021-01-20","RA_OF_ASC_NODE":"206.2162","SEMIMAJOR_AXIS":"6925.368","TIME_SYSTEM":"UTC","SITE":"AFETR","INCLINATION":"53.0548","MEAN_MOTION":"15.06393771","RCS_SIZE":"LARGE","PERIAPSIS":"546.037","CENTER_NAME":"EARTH","MEAN_MOTION_DDOT":"0.0000000000000","MEAN_ELEMENT_THEORY":"SGP4","TLE_LINE1":"1 47353U 21005E   21246.36579715 -.00000794  00000-0 -34433-4 0  9991","TLE_LINE2":"2 47353  53.0548 206.2162 0001726  57.1696 302.9459 15.06393771 36034","FILE":"3108043","PERIOD":"95.593","CLASSIFICATION_TYPE":"U","EPHEMERIS_TYPE":"0"},{"RA_OF_ASC_NODE":"224.6894","SEMIMAJOR_AXIS":"6925.371","TIME_SYSTEM":"UTC","SITE":"AFETR","INCLINATION":"53.0547","MEAN_MOTION":"15.06392727","RCS_SIZE":"LARGE","CENTER_NAME":"EARTH","PERIAPSIS":"546.683","MEAN_MOTION_DDOT":"0.0000000000000","MEAN_ELEMENT_THEORY":"SGP4","TLE_LINE1":"1 47354U 21005F   21246.71043951 -.00000565  00000-0 -19092-4 0  9999","TLE_LINE2":"2 47354  53.0547 224.6894 0000799  45.2459 314.8594 15.06392727 35147","FILE":"3108332","EPHEMERIS_TYPE":"0","PERIOD":"95.593","CLASSIFICATION_TYPE":"U","BSTAR":"-0.00001909200000","OBJECT_NAME":"STARLINK-2046","ARG_OF_PERICENTER":"45.2459","ELEMENT_SET_NO":"999","OBJECT_ID":"2021-005F","MEAN_ANOMALY":"314.8594","REF_FRAME":"TEME","ECCENTRICITY":"0.00007990","NORAD_CAT_ID":"47354","DECAY_DATE":null,"GP_ID":"184050453","APOAPSIS":"547.789","COUNTRY_CODE":"US","OBJECT_TYPE":"PAYLOAD","EPOCH":"2021-09-03T17:03:01.973664","MEAN_MOTION_DOT":"-0.00000565","LAUNCH_DATE":"2021-01-20","REV_AT_EPOCH":"3514"},{"TLE_LINE1":"1 47355U 21005G   21246.31834218  .00000902  00000-0  79437-4 0  9992","TLE_LINE2":"2 47355  53.0510 211.4572 0001362  44.6192 315.4907 15.06390242 35290","FILE":"3107903","PERIOD":"95.593","CLASSIFICATION_TYPE":"U","EPHEMERIS_TYPE":"0","PERIAPSIS":"546.300","CENTER_NAME":"EARTH","MEAN_MOTION_DDOT":"0.0000000000000","MEAN_ELEMENT_THEORY":"SGP4","INCLINATION":"53.0510","MEAN_MOTION":"15.06390242","RCS_SIZE":"LARGE","RA_OF_ASC_NODE":"211.4572","SEMIMAJOR_AXIS":"6925.378","TIME_SYSTEM":"UTC","SITE":"AFETR","COUNTRY_CODE":"US","OBJECT_TYPE":"PAYLOAD","EPOCH":"2021-09-03T07:38:24.764352","MEAN_MOTION_DOT":"0.00000902","LAUNCH_DATE":"2021-01-20","REV_AT_EPOCH":"3529","DECAY_DATE":null,"GP_ID":"184016005","APOAPSIS":"548.187","ELEMENT_SET_NO":"999","OBJECT_ID":"2021-005G","MEAN_ANOMALY":"315.4907","REF_FRAME":"TEME","NORAD_CAT_ID":"47355","ECCENTRICITY":"0.00013620","BSTAR":"0.00007943700000","OBJECT_NAME":"STARLINK-2047","ARG_OF_PERICENTER":"44.6192"},{"APOAPSIS":"547.993","GP_ID":"184048955","DECAY_DATE":null,"MEAN_MOTION_DOT":"-0.00001072","EPOCH":"2021-09-03T15:29:28.600224","LAUNCH_DATE":"2021-01-20","REV_AT_EPOCH":"3506","OBJECT_TYPE":"PAYLOAD","COUNTRY_CODE":"US","ARG_OF_PERICENTER":"31.4901","OBJECT_NAME":"STARLINK-2049","BSTAR":"-0.00005309200000","MEAN_ANOMALY":"328.6153","NORAD_CAT_ID":"47356","ECCENTRICITY":"0.00010960","REF_FRAME":"TEME","ELEMENT_SET_NO":"999","OBJECT_ID":"2021-005H","MEAN_ELEMENT_THEORY":"SGP4","MEAN_MOTION_DDOT":"0.0000000000000","CENTER_NAME":"EARTH","PERIAPSIS":"546.475","FILE":"3108332","TLE_LINE2":"2 47356  53.0544 229.9814 0001096  31.4901 328.6153 15.06393455 35060","PERIOD":"95.593","CLASSIFICATION_TYPE":"U","EPHEMERIS_TYPE":"0","TLE_LINE1":"1 47356U 21005H   21246.64546991 -.00001072  00000-0 -53092-4 0  9997","TIME_SYSTEM":"UTC","SITE":"AFETR","SEMIMAJOR_AXIS":"6925.369","RA_OF_ASC_NODE":"229.9814","RCS_SIZE":"LARGE","INCLINATION":"53.0544","MEAN_MOTION":"15.06393455"},{"MEAN_MOTION_DDOT":"0.0000000000000","CENTER_NAME":"EARTH","PERIAPSIS":"546.314","MEAN_ELEMENT_THEORY":"SGP4","TLE_LINE1":"1 47357U 21005J   21246.45472548  .00002558  00000-0  19049-3 0  9994","EPHEMERIS_TYPE":"0","PERIOD":"95.591","CLASSIFICATION_TYPE":"U","FILE":"3108332","TLE_LINE2":"2 47357  53.0549 260.8416 0001247  59.7913 300.3199 15.06411612 34615","SEMIMAJOR_AXIS":"6925.313","RA_OF_ASC_NODE":"260.8416","SITE":"AFETR","TIME_SYSTEM":"UTC","MEAN_MOTION":"15.06411612","INCLINATION":"53.0549","RCS_SIZE":"LARGE","GP_ID":"184049205","DECAY_DATE":null,"APOAPSIS":"548.042","OBJECT_TYPE":"PAYLOAD","COUNTRY_CODE":"US","LAUNCH_DATE":"2021-01-20","REV_AT_EPOCH":"3461","MEAN_MOTION_DOT":"0.00002558","EPOCH":"2021-09-03T10:54:48.281472","OBJECT_NAME":"STARLINK-2050","BSTAR":"0.00019049000000","ARG_OF_PERICENTER":"59.7913","OBJECT_ID":"2021-005J","ELEMENT_SET_NO":"999","ECCENTRICITY":"0.00012470","NORAD_CAT_ID":"47357","REF_FRAME":"TEME","MEAN_ANOMALY":"300.3199"},{"RCS_SIZE":"LARGE","MEAN_MOTION":"15.06387685","INCLINATION":"53.0544","SITE":"AFETR","TIME_SYSTEM":"UTC","SEMIMAJOR_AXIS":"6925.386","RA_OF_ASC_NODE":"229.9225","EPHEMERIS_TYPE":"0","PERIOD":"95.593","CLASSIFICATION_TYPE":"U","FILE":"3108332","TLE_LINE2":"2 47358  53.0544 229.9225 0001079  57.4146 302.6947 15.06387685 35069","TLE_LINE1":"1 47358U 21005K   21246.65653982  .00002656  00000-0  19718-3 0  9992","MEAN_ELEMENT_THEORY":"SGP4","MEAN_MOTION_DDOT":"0.0000000000000","CENTER_NAME":"EARTH","PERIAPSIS":"546.504","NORAD_CAT_ID":"47358","ECCENTRICITY":"0.00010790","REF_FRAME":"TEME","MEAN_ANOMALY":"302.6947","OBJECT_ID":"2021-005K","ELEMENT_SET_NO":"999","ARG_OF_PERICENTER":"57.4146","OBJECT_NAME":"STARLINK-2055","BSTAR":"0.00019718000000","LAUNCH_DATE":"2021-01-20","REV_AT_EPOCH":"3506","MEAN_MOTION_DOT":"0.00002656","EPOCH":"2021-09-03T15:45:25.040448","OBJECT_TYPE":"PAYLOAD","COUNTRY_CODE":"US","APOAPSIS":"547.999","GP_ID":"184049953","DECAY_DATE":null},{"ELEMENT_SET_NO":"999","OBJECT_ID":"2021-005L","REF_FRAME":"TEME","ECCENTRICITY":"0.00010790","NORAD_CAT_ID":"47359","MEAN_ANOMALY":"290.9425","OBJECT_NAME":"STARLINK-2069","BSTAR":"0.00006409400000","ARG_OF_PERICENTER":"69.1679","COUNTRY_CODE":"US","OBJECT_TYPE":"PAYLOAD","LAUNCH_DATE":"2021-01-20","REV_AT_EPOCH":"3466","EPOCH":"2021-09-03T08:02:58.507296","MEAN_MOTION_DOT":"0.00000673","DECAY_DATE":null,"GP_ID":"184015506","APOAPSIS":"547.976","MEAN_MOTION":"15.06394950","INCLINATION":"53.0551","RCS_SIZE":"LARGE","RA_OF_ASC_NODE":"256.3701","SEMIMAJOR_AXIS":"6925.364","SITE":"AFETR","TIME_SYSTEM":"UTC","TLE_LINE1":"1 47359U 21005L   21246.33539939  .00000673  00000-0  64094-4 0  9998","PERIOD":"95.592","CLASSIFICATION_TYPE":"U","EPHEMERIS_TYPE":"0","TLE_LINE2":"2 47359  53.0551 256.3701 0001079  69.1679 290.9425 15.06394950 34660","FILE":"3107903","PERIAPSIS":"546.482","CENTER_NAME":"EARTH","MEAN_MOTION_DDOT":"0.0000000000000","MEAN_ELEMENT_THEORY":"SGP4"},{"SEMIMAJOR_AXIS":"6925.369","RA_OF_ASC_NODE":"224.8462","TIME_SYSTEM":"UTC","SITE":"AFETR","INCLINATION":"53.0563","MEAN_MOTION":"15.06393260","RCS_SIZE":"LARGE","MEAN_MOTION_DDOT":"0.0000000000000","PERIAPSIS":"546.502","CENTER_NAME":"EARTH","MEAN_ELEMENT_THEORY":"SGP4","TLE_LINE1":"1 47360U 21005M   21246.67357555  .00000633  00000-0  61406-4 0  9999","FILE":"3108332","TLE_LINE2":"2 47360  53.0563 224.8462 0001057  21.0722 339.0311 15.06393260 35147","PERIOD":"95.593","EPHEMERIS_TYPE":"0","CLASSIFICATION_TYPE":"U","BSTAR":"0.00006140600000","OBJECT_NAME":"STARLINK-2070","ARG_OF_PERICENTER":"21.0722","ELEMENT_SET_NO":"999","OBJECT_ID":"2021-005M","MEAN_ANOMALY":"339.0311","NORAD_CAT_ID":"47360","ECCENTRICITY":"0.00010570","REF_FRAME":"TEME","GP_ID":"184049456","DECAY_DATE":null,"APOAPSIS":"547.966","OBJECT_TYPE":"PAYLOAD","COUNTRY_CODE":"US","MEAN_MOTION_DOT":"0.00000633","EPOCH":"2021-09-03T16:09:56.927520","LAUNCH_DATE":"2021-01-20","REV_AT_EPOCH":"3514"}];
